[{"OBJECT_NAME":"STARLINK-31764","OBJECT_ID":"2024-082Y","EPOCH":"2026-03-09T05:30:12.005568","MEAN_MOTION":15.27582221,"ECCENTRICITY":8.592e-5,"INCLINATION":42.9998,"RA_OF_ASC_NODE":142.2225,"ARG_OF_PERICENTER":256.2359,"MEAN_ANOMALY":103.8397,"EPHEMERIS_TYPE":0,"CLASSIFICATION_TYPE":"U","NORAD_CAT_ID":59653,"ELEMENT_SET_NO":999,"REV_AT_EPOCH":10494,"BSTAR":-7.7020434e-5,"MEAN_MOTION_DOT":-2.381e-5,"MEAN_MOTION_DDOT":0},{"OBJECT_NAME":"SL-24 DEB","OBJECT_ID":"2013-066AL","EPOCH":"2026-03-09T22:28:39.180576","MEAN_MOTION":15.26992446,"ECCENTRICITY":0.00036318,"INCLINATION":97.3978,"RA_OF_ASC_NODE":75.9402,"ARG_OF_PERICENTER":273.216,"MEAN_ANOMALY":86.8663,"EPHEMERIS_TYPE":0,"CLASSIFICATION_TYPE":"U","NORAD_CAT_ID":39450,"ELEMENT_SET_NO":999,"REV_AT_EPOCH":67244,"BSTAR":0.00070559472,"MEAN_MOTION_DOT":0.00018651,"MEAN_MOTION_DDOT":0}]
